[{"OBJECT_NAME":"STARLINK-30148","OBJECT_ID":"2023-119R","EPOCH":"2026-03-09T22:00:01.999584","MEAN_MOTION":15.22155034,"ECCENTRICITY":0.00015016,"INCLINATION":43.0007,"RA_OF_ASC_NODE":79.7897,"ARG_OF_PERICENTER":287.7319,"MEAN_ANOMALY":193.3856,"EPHEMERIS_TYPE":0,"CLASSIFICATION_TYPE":"U","NORAD_CAT_ID":57617,"ELEMENT_SET_NO":999,"REV_AT_EPOCH":573,"BSTAR":0.046088081,"MEAN_MOTION_DOT":0.01172533,"MEAN_MOTION_DDOT":0},{"OBJECT_NAME":"FENGYUN 1C DEB","OBJECT_ID":"1999-025AJJ","EPOCH":"2026-03-09T18:40:58.380672","MEAN_MOTION":15.18672988,"ECCENTRICITY":0.00638575,"INCLINATION":98.7226,"RA_OF_ASC_NODE":259.4919,"ARG_OF_PERICENTER":168.3626,"MEAN_ANOMALY":191.9098,"EPHEMERIS_TYPE":0,"CLASSIFICATION_TYPE":"U","NORAD_CAT_ID":30520,"ELEMENT_SET_NO":999,"REV_AT_EPOCH":2360,"BSTAR":0.0014000942,"MEAN_MOTION_DOT":0.0003064,"MEAN_MOTION_DDOT":0}]
